WGS-F5-(USA-243)--------
1 39168U 13024A   21276.87120119 -.00000287  00000-0  00000-0 0  9992
2 39168   0.0081 165.0494 0000322  84.8316  24.0625  1.00271460 29959
SES-6-------------------
1 39172U 13026A   21276.86110483 -.00000264  00000-0  00000-0 0  9996
2 39172   0.0235 301.9620 0002129 260.2682  80.0573  1.00271733 30500
IRNSS-1A----------------
1 39199U 13034A   21277.06090788  .00000116  00000-0  00000+0 0  9996
2 39199  31.8609  89.3172 0020552 178.0914 182.5714  1.00269421 30437
MUOS-2------------------
1 39206U 13036A   21276.83380556  .00000064  00000-0  00000+0 0  9998
2 39206   2.5624  13.8594 0057545 179.6101 302.4017  1.00273370 30083
ALPHASAT----------------
1 39215U 13038A   21276.87418755  .00000134  00000-0  00000-0 0  9996
2 39215   2.6193  15.9657 0002765 190.5348 145.8683  1.00273279 26796
INSAT-3D----------------
1 39216U 13038B   21276.91298917 -.00000159  00000-0  00000-0 0  9996
2 39216   0.0191 231.0434 0001333 321.6918 230.8753  1.00270972 29873
WGS-F6-(USA-244)--------
1 39222U 13041A   21276.69870464  .00000087  00000-0  00000-0 0  9994
2 39222   0.0217 188.1870 0000194 127.5340 173.2293  1.00270351 28836
ES'HAIL-1---------------
1 39233U 13044A   21277.11021821  .00000140  00000-0  00000+0 0  9991
2 39233   0.0237  20.0277 0001743 167.0067 251.1401  1.00269515 29682
GSAT-7------------------
1 39234U 13044B   21276.88395597 -.00000080  00000-0  00000-0 0  9994
2 39234   0.0311 117.1032 0008279 134.9383 153.0110  1.00272360 28103
AMOS-4------------------
1 39237U 13045A   21276.88221161  .00000004  00000-0  00000-0 0  9998
2 39237   0.0320 252.6046 0001417 312.2548 190.5600  1.00272331 29735
AEHF-3-(USA-246)--------
1 39256U 13050A   21276.76638593  .00000133  00000-0  00000-0 0  9996
2 39256   1.1251  63.8650 0055496 183.8480 245.7992  1.00273466 28452
ASTRA-2E----------------
1 39285U 13056A   21277.10466105  .00000148  00000-0  00000+0 0  9996
2 39285   0.0610  17.3427 0002499 180.3411 241.5161  1.00271343 29374
FM-6--------------------
1 39360U 13058A   21276.60661634 -.00000020  00000-0  00000-0 0  9991
2 39360   0.0437 270.8883 0000589 170.5267  33.3493  1.00271794 28841
RADUGA-1M-3-------------
1 39375U 13062A   21276.58907142  .00000154  00000-0  00000-0 0  9993
2 39375   1.5864  92.5177 0001239 349.4636 177.5641  1.00273222 28903
SES-8-------------------
1 39460U 13071A   21276.88814247 -.00000273  00000-0  00000-0 0  9997
2 39460   0.0245 232.3063 0001689 281.4713 273.7837  1.00272790 27200
INMARSAT-5-F1-----------
1 39476U 13073A   21276.88168830  .00000025  00000-0  00000-0 0  9990
2 39476   0.0166 203.6398 0000347  90.7659  98.4345  1.00271735 28363
TKSAT-1-(TUPAC-KATARI)--
1 39481U 13075A   21276.85185972 -.00000197  00000-0  00000-0 0  9992
2 39481   0.0401 331.1110 0002079 205.3092  55.8378  1.00270881 28374
EXPRESS-AM5-------------
1 39487U 13077A   21276.96890645 -.00000283  00000-0  00000+0 0  9997
2 39487   0.0286 308.8318 0001222  29.0131 163.8902  1.00269843 29130
GSAT-14-----------------
1 39498U 14001A   21276.88395597 -.00000080  00000-0  00000-0 0  9990
2 39498   0.0083 176.7365 0005229  54.9561 173.3592  1.00271947 28189
THAICOM-6---------------
1 39500U 14002A   21276.88482816 -.00000125  00000-0  00000-0 0  9996
2 39500   0.0719 117.6069 0004283  45.9728 246.3038  1.00272253 28231
TDRS-12-----------------
1 39504U 14004A   21276.43044161 -.00000274  00000-0  00000+0 0  9994
2 39504   4.1077 343.2112 0002979 197.2732 305.9323  1.00269401 28228
ABS-2-------------------
1 39508U 14006A   21276.95952130 -.00000089  00000-0  00000+0 0  9995
2 39508   0.0439  48.5025 0002626 133.2206 251.5285  1.00272008 28109
ATHENA-FIDUS------------
1 39509U 14006B   21276.84007800  .00000151  00000-0  00000+0 0  9998
2 39509   0.0194 168.7510 0001518  34.0902 150.1597  1.00271204 28288
TURKSAT-4A--------------
1 39522U 14007A   21276.84007800  .00000143  00000-0  00000-0 0  9996
2 39522   0.0491 266.6694 0003994 323.7876 126.7431  1.00270136 27763
EXPRESS-AT1-------------
1 39612U 14010A   21277.16750213  .00000075  00000-0  00000+0 0  9992
2 39612   0.0418 336.2459 0000145 285.5808 227.5742  1.00272935 27832
EXPRESS-AT2-------------
1 39613U 14010B   21276.55604845 -.00000284  00000-0  00000-0 0  9998
2 39613   0.0327 330.9615 0000716 294.0757  87.4721  1.00270780 27655
AMAZONAS-4A-------------
1 39616U 14011A   21277.06507788 -.00000255  00000-0  00000+0 0  9994
2 39616   0.1184  81.5465 0003083 108.6465 132.2373  1.00271376 27652
ASTRA-5B----------------
1 39617U 14011B   21277.10466105  .00000152  00000-0  00000+0 0  9992
2 39617   0.0094  70.2259 0003631 124.6708 247.3006  1.00269619 27653
IRNSS-1B----------------
1 39635U 14017A   21276.55465836  .00000097  00000-0  00000-0 0  9995
2 39635  29.2706 269.3793 0020817 190.3074 167.5289  1.00276035 27567
LUCH-5V-----------------
1 39727U 14023A   21276.88814247 -.00000271  00000-0  00000-0 0  9999
2 39727   0.9114  66.4505 0002133 120.9883 239.8369  1.00274809 27135
KAZSAT-3----------------
1 39728U 14023B   21276.88090333  .00000058  00000-0  00000-0 0  9994
2 39728   0.0101 211.1737 0000190 329.7426 207.5313  1.00269864 25226
EUTELSAT-3B-------------
1 39773U 14030A   21276.86982663  .00000018  00000-0  00000-0 0  9992
2 39773   0.0644  17.1472 0005709 173.2112 138.6801  1.00272657 26842
USA-254-----------------
1 40100U 14043B   21264.75026000  .00000107  00000-0  00000+0 0  9999
2 40100   0.2370  98.5897 0001445 159.4220  68.6583  0.99580380  1405
ASIASAT-8-(AMOS-7)------
1 40107U 14046A   21276.86843115 -.00000036  00000-0  00000-0 0  9991
2 40107   0.0194 233.4187 0002219 309.2686 138.8748  1.00271231 84934
ASIASAT-6---------------
1 40141U 14052A   21276.89311389 -.00000365  00000-0  00000-0 0  9997
2 40141   0.0240 129.5341 0000656  85.5454 239.1920  1.00271693 25946
OPTUS-10----------------
1 40146U 14054A   21276.90035300 -.00000150  00000-0  00000+0 0  9993
2 40146   0.0767 293.8949 0004333 254.3626 304.7014  1.00271217 25908
MEASAT-3B---------------
1 40147U 14054B   21276.88744470 -.00000245  00000-0  00000-0 0  9992
2 40147   0.0409  43.8999 0000704 174.3454 205.5499  1.00270881 25684
LUCH-(OLYMP)------------
1 40258U 14058A   21276.88116500  .00000036  00000-0  00000-0 0  9993
2 40258   0.0367 272.3649 0002551 332.4607 144.9869  1.00333779 23771
HIMAWARI-8--------------
1 40267U 14060A   21276.89721314 -.00000279  00000-0  00000-0 0  9992
2 40267   0.0169 176.2148 0001286  59.0615 241.2049  1.00270424 25547
IRNSS-1C----------------
1 40269U 14061A   21276.88570034 -.00000163  00000-0  00000-0 0  9997
2 40269   2.4597 141.8542 0020429   6.4795 266.3698  1.00273715 25466
INTELSAT-30-(IS-30)-----
1 40271U 14062A   21276.63494817 -.00000154  00000-0  00000-0 0  9998
2 40271   0.0185 257.2794 0002163 175.4198  73.4082  1.00273499 25379
ARSAT-1-----------------
1 40272U 14062B   21276.85491234 -.00000262  00000-0  00000-0 0  9993
2 40272   0.0148 260.2004 0001595 291.5364  57.0209  1.00272309 25390
EXPRESS-AM6-------------
1 40277U 14064A   21277.16689160  .00000095  00000-0  00000+0 0  9994
2 40277   0.0427 296.3849 0000410 179.6127  10.1819  1.00273249 25458
GSAT-16-----------------
1 40332U 14078A   21276.88020559  .00000082  00000-0  00000-0 0  9997
2 40332   0.0026 194.5403 0005229 281.1092 269.0930  1.00271505 24881
DIRECTV-14--------------
1 40333U 14078B   21276.84941760 -.00000128  00000-0  00000-0 0  9992
2 40333   0.0209 133.5352 0000292 273.2258 172.5807  1.00273497 24830
YAMAL-401---------------
1 40345U 14082A   21272.43710476 -.00000230  00000-0  00000-0 0  9993
2 40345   0.0138 191.5957 0000407  47.7924  16.3546  1.00272355 25143
ASTRA-2G----------------
1 40364U 14089A   21277.11004462  .00000147  00000-0  00000+0 0  9997
2 40364   0.0326  22.1920 0002037  74.5876 344.0702  1.00270467 24806
FENGYUN-2G--------------
1 40367U 14090A   21277.15969896 -.00000304  00000-0  00000+0 0  9993
2 40367   1.2920  91.6995 0002465 266.1728 172.4448  1.00272558 24820
MUOS-3------------------
1 40374U 15002A   21277.09354991 -.00000130  00000-0  00000+0 0  9999
2 40374   2.5481   2.6880 0059490 179.4881 208.9715  1.00270325 24603
INMARSAT-5-F2-----------
1 40384U 15005A   21276.85822663 -.00000288  00000-0  00000-0 0  9997
2 40384   0.0157 205.7491 0000169 168.6435 252.3762  1.00272185 23773
ABS-3A------------------
1 40424U 15010A   21276.86860559 -.00000029  00000-0  00000-0 0  9998
2 40424   0.0072 198.5515 0002424 261.7387 222.2050  1.00271633 24186
EUTELSAT-115-WEST-B-----
1 40425U 15010B   21276.60767494 -.00000028  00000-0  00000-0 0  9994
2 40425   0.0284  40.4594 0000070 130.0964 305.8511  1.00271756 24184
EXPRESS-AM7-------------
1 40505U 15012A   21276.84007800  .00000148  00000-0  00000-0 0  9991
2 40505   0.0165 150.2015 0002886  59.2054 145.7897  1.00273572 23789
IRNSS-1D----------------
1 40547U 15018A   21276.92386385 -.00000286  00000-0  00000-0 0  9994
2 40547  29.1039 269.4303 0018847 189.9921 357.7436  1.00269057 23774
BEIDOU-17---------------
1 40549U 15019A   21276.59667399 -.00000124  00000-0  00000-0 0  9998
2 40549  52.3164 315.7411 0038328 189.3457 174.4418  1.00297808 23861
THOR-7------------------
1 40613U 15022A   21276.86912889 -.00000011  00000-0  00000-0 0  9996
2 40613   0.0097 173.3471 0002595  15.1684 136.5299  1.00271170 23609
TURKMENALEM52E/MONACOSAT
1 40617U 15023A   21276.87959507  .00000101  00000-0  00000-0 0  9999
2 40617   0.0235 107.4255 0003059  87.9200 186.1379  1.00273115 23614
DIRECTV-15--------------
1 40663U 15026A   21277.07704965 -.00000105  00000-0  00000+0 0  9996
2 40663   0.0194 160.0869 0000278 271.2784 226.5335  1.00269685 23315
SKY-MEXICO-1------------
1 40664U 15026B   21276.85351685 -.00000237  00000-0  00000-0 0  9996
2 40664   0.0200 148.7901 0002001  45.5584  46.9418  1.00271838 23230
